{
  "type": "FeatureCollection",
  "name": "Ommen 1832 - HisGIS",
  "features": [
    {
      "type": "Feature",
      "properties": {
        "sectie": "B02",
        "perceelnummer": "123",
        "kadastrale_gemeente": "Ommen",
        "eigenaar": "Jan Berends van der Kolk",
        "beroep": "Landbouwer",
        "gebruik": "Huis en erf",
        "oppervlakte": "1200",
        "bron": "HisGIS OAT 1832"
      },
      "geometry": {
        "type": "Polygon",
        "coordinates": [
          [
            [
              6.4175,
              52.5178
            ],
            [
              6.4182,
              52.5178
            ],
            [
              6.4182,
              52.5173
            ],
            [
              6.4175,
              52.5173
            ],
            [
              6.4175,
              52.5178
            ]
          ]
        ]
      }
    },
    {
      "type": "Feature",
      "properties": {
        "sectie": "B02",
        "perceelnummer": "124",
        "kadastrale_gemeente": "Ommen",
        "eigenaar": "Gemeente Ommen",
        "beroep": "",
        "gebruik": "Weg",
        "oppervlakte": "450",
        "bron": "HisGIS OAT 1832"
      },
      "geometry": {
        "type": "Polygon",
        "coordinates": [
          [
            [
              6.4182,
              52.5178
            ],
            [
              6.419,
              52.5178
            ],
            [
              6.419,
              52.5173
            ],
            [
              6.4182,
              52.5173
            ],
            [
              6.4182,
              52.5178
            ]
          ]
        ]
      }
    },
    {
      "type": "Feature",
      "properties": {
        "sectie": "B03",
        "perceelnummer": "56",
        "kadastrale_gemeente": "Stad Ommen",
        "eigenaar": "Hendrik Jan Schuurman",
        "beroep": "Winkelier",
        "gebruik": "Huis, schuur en erf",
        "oppervlakte": "890",
        "bron": "HisGIS OAT 1832"
      },
      "geometry": {
        "type": "Polygon",
        "coordinates": [
          [
            [
              6.417,
              52.5173
            ],
            [
              6.418,
              52.5173
            ],
            [
              6.418,
              52.5168
            ],
            [
              6.417,
              52.5168
            ],
            [
              6.417,
              52.5173
            ]
          ]
        ]
      }
    }
  ]
}